"upper": "ACNOS", "zip": "(96799)(?:[ \\-](\\d{4}))?", "zip_name_type": "zip", "zipex": "96799"},
  "data/AT": {"fmt": "%O%n%N%n%A%n%Z %C", "id": "data/AT", "key": "AT", "name": "AUSTRIA", "posturl": "http://www.post.at/post_subsite_postleitzahlfinder.php", "require": "ACZ", "zip": "\\d{4}", "zipex": "1010,3741"},
  "data/AU": {"fmt": "%O%n%N%n%A%n%C %S %Z", "id": "data/AU", "key": "AU", "lang": "en", "languages": "en", "locality_name_type": "suburb", "name": "AUSTRALIA", "posturl": "http://www1.auspost.com.au/postcodes/", "require": "ACSZ", "state_name_type": "state", "sub_isoids": "ACT~NSW~NT~QLD~SA~TAS~VIC~WA", "sub_keys": "ACT~NSW~NT~QLD~SA~TAS~VIC~WA", "sub_names": "Australian Capital Territory~New South Wales~Northern Territory~Queensland~South Australia~Tasmania~Victoria~Western Australia", "sub_zipexs": "0200,2540,2618,2999~1000,2888,3585,3707~0800,0999~4000,9999~5000~7000,7999~3000,8000~6000,0872", "sub_zips": "29|2540|260|261[0-8]|02|2620~1|2[0-57-8]|26[2-9]|261[189]|3500|358[56]|3644|3707~0[89]~[49]~5|0872~7~[38]~6|0872", "upper": "CS", "zip": "\\d{4}", "zipex": "2060,3171,6430,4000,4006,3001"},
  "data/AW": {"id": "data/AW", "key": "AW", "name": "ARUBA"},
  "data/AZ": {"fmt": "%N%n%O%n%A%nAZ %Z %C", "id": "data/AZ", "key": "AZ", "name": "AZERBAIJAN", "postprefix": "AZ ", "zip": "\\d{4}", "zipex": "1000"},
  "data/BA": {"fmt": "%N%n%O%n%A%n%Z %C", "id": "data/BA", "key": "BA", "name": "BOSNIA AND HERZEGOVINA", "zip": "\\d{5}", "zipex": "71000"},
  "data/BB": {"fmt": "%N%n%O%n%A%n%C, %S %Z", "id": "data/BB", "key": "BB", "name": "BARBADOS", "state_name_type": "parish", "zip": "BB\\d{5}", "zipex": "BB23026,BB22025"},
  "data/BD": {"fmt": "%N%n%O%n%A%n%C - %Z", "id": "data/BD", "key": "BD", "name": "BANGLADESH", "posturl": "http://www.bangladeshpost.gov.bd/PostCode.asp", "zip": "\\d{4}", "zipex": "1340,1000"},
  "data/BE": {"fmt": "%O%n%N%n%A%n%Z %C", "id": "data/BE", "key": "BE", "name": "BELGIUM", "posturl": "http://www.post.be/site/nl/residential/customerservice/search/postal_codes.html", "require": "ACZ", "zip": "\\d{4}", "zipex": "4000,1000"},
  "data/BF": {"fmt": "%N%n%O%n%A%n%C %X", "id": "data/BF", "key": "BF", "name": "BURKINA FASO"},
  "data/BG": {"fmt": "%N%n%O%n%A%n%Z %C", "id": "data/BG", "key": "BG", "name": "BULGARIA (REP.)", "posturl": "http://www.bgpost.bg/?cid=5", "zip": "\\d{4}", "zipex": "1000,1700"},
  "data/BH": {"fmt": "%N%n%O%n%A%n%C %Z", "id": "data/BH", "key": "BH", "name": "BAHRAIN", "zip": "(?:\\d|1[0-2])\\d{2}", "zipex": "317"},
  "data/BI": {"id": "data/BI", "key": "BI", "name": "BURUNDI"},
  "data/BJ": {"id": "data/BJ", "key": "BJ", "name": "BENIN", "upper": "AC"},
  "data/BL": {"fmt": "%O%n%N%n%A%n%Z %C %X", "id": "data/BL", "key": "BL", "name": "SAINT BARTHELEMY", "posturl": "http://www.laposte.fr/Particulier/Utiliser-nos-outils-pratiques/Outils-et-documents/Trouvez-un-code-postal", "require": "ACZ", "upper": "ACX", "zip": "9[78][01]\\d{2}", "zipex": "97100"},
  "data/BM": {"fmt": "%N%n%O%n%A%n%C %Z", "id": "data/BM", "key": "BM", "name": "BERMUDA", "posturl": "http://www.landvaluation.bm/", "zip": "[A-Z]{2} ?[A-Z0-9]{2}", "zipex": "FL 07,HM GX,HM 12"},
  "data/BN": {"fmt": "%N%n%O%n%A%n%C %Z", "id": "data/BN", "key": "BN", "name": "BRUNEI DARUSSALAM", "posturl": "http://www.post.gov.bn/SitePages/postcodes.aspx", "zip": "[A-Z]{2} ?\\d{4}", "zipex": "BT2328,KA1131,BA1511"},
  "data/BO": {"id": "data/BO", "key": "BO", "name": "BOLIVIA", "upper": "AC"},
  "data/BQ": {"id": "data/BQ", "key": "BQ", "name": "BONAIRE, SINT EUSTATIUS, AND SABA"},
  "data/BR": {"fmt": "%O%n%N%n%A%n%D%n%C-%S%n%Z", "id": "data/BR", "key": "BR", "lang": "pt", "languages": "pt", "name": "BRAZIL", "posturl": "http://www.buscacep.correios.com.br/", "require": "ASCZ", "state_name_type": "state", "sub_isoids": "AC~AL~AP~AM~BA~CE~DF~ES~GO~MA~MT~MS~MG~PA~PB~PR~PE~PI~RJ~RN~RS~RO~RR~SC~SP~SE~TO", "sub_keys": "AC~AL~AP~AM~BA~CE~DF~ES~GO~MA~MT~MS~MG~PA~PB~PR~PE~PI~RJ~RN~RS~RO~RR~SC~SP~SE~TO", "sub_mores": "true~true~true~true~true~true~true~true~true~true~true~true~true~true~true~true~true~true~true~true~true~true~true~true~true~true~true", "sub_names": "Acre~Alagoas~Amapá~Amazonas~Bahia~Ceará~Distrito Federal~Espírito Santo~Goiás~Maranhão~Mato Grosso~Mato Grosso do Sul~Minas Gerais~Pará~Paraíba~Paraná~Pernambuco~Piauí~Rio de Janeiro~Rio Grande do Norte~Rio Grande do Sul~Rondônia~Roraima~Santa Catarina~São Paulo~Sergipe~Tocantins", "sub_zipexs": "69900-000,69999-999~57000-000,57999-999~68900-000,68999-999~69000-000,69400-123~40000-000,48999-999~60000-000,63999-999~70000-000,73500-123~29000-000,29999-999~72800-000,73700-123~65000-000,65999-999~78000-000,78899-999~79000-000,79999-999~30000-000,39999-999~66000-000,68899-999~58000-000,58999-999~80000-000,87999-999~50000-000,56999-999~64000-000,64999-999~20000-000,28999-999~59000-000,59999-999~90000-000,99999-999~76800-000,78900-000,78999-999~69300-000,69399-999~88000-000,89999-999~01000-000,13000-123~49000-000,49999-999~77000-000,77999-999", "sub_zips": "699~57~689~69[0-24-8]~4[0-8]~6[0-3]~7[0-1]|72[0-7]|73[0-6]~29~72[89]|73[7-9]|7[4-6]~65~78[0-8]~79~3~6[6-7]|68[0-8]~58~8[0-7]~5[0-6]~64~2[0-8]~59~9~76[89]|789~693~8[89]~[01][1-9]~49~77", "sublocality_name_type": "neighborhood", "upper": "CS", "zip": "\\d{5}-?\\d{3}", "zipex": "40301-110,70002-900"},
  "data/BS": {"fmt": "%N%n%O%n%A%n%C, %S", "id": "data/BS", "key": "BS", "lang": "en", "languages": "en", "name": "BAHAMAS", "state_name_type": "island", "sub_isoids": "~AK~~BY~BI~CI~~~EX~~HI~IN~LI~MG~~RI~RC~SS~SW", "sub_keys": "Abaco~Acklins~Andros~Berry Islands~Bimini~Cat Island~Crooked Island~Eleuthera~Exuma~Grand Bahama~Harbour Island~Inagua~Long Island~Mayaguana~N.P.~Ragged Island~Rum Cay~San Salvador~Spanish Wells", "sub_names": "Abaco Islands~Acklins~Andros Island~Berry Islands~Bimini~Cat Island~Crooked Island~Eleuthera~Exuma and Cays~Grand Bahama~Harbour Island~Inagua~Long Island~Mayaguana~New Providence~Ragged Island~Rum Cay~San Salvador~Spanish Wells"},
  "data/BT": {"fmt": "%N%n%O%n%A%n%C %Z", "id": "data/BT", "key": "BT", "name": "BHUTAN", "posturl": "http://www.bhutanpost.bt/postcodes/", "zip": "\\d{5}", "zipex": "11001,31101,35003"},
  "data/BV": {"id": "data/BV", "key": "BV", "name": "BOUVET ISLAND"},
  "data/BW": {"id": "data/BW", "key": "BW", "name": "BOTSWANA"},
  "data/BY": {"fmt": "%S%n%Z %C%n%A%n%O%n%N", "id": "data/BY", "key": "BY", "name": "BELARUS", "posturl": "http://ex.belpost.by/addressbook/", "zip": "\\d{6}", "zipex": "223016,225860,220050"},
  "data/BZ": {"id": "data/BZ", "key": "BZ", "name": "BELIZE"},
  "data/CA": {"fmt": "%N%n%O%n%A%n%C %S %Z", "id": "data/CA", "key": "CA", "lang": "en", "languages": "en~fr", "name": "CANADA", "posturl": "https://www.canadapost.ca/cpo/mc/personal/postalcode/fpc.jsf", "require": "ACSZ", "sub_isoids": "AB~BC~MB~NB~NL~NT~NS~NU~ON~PE~QC~SK~YT", "sub_keys": "AB~BC~MB~NB~NL~NT~NS~NU~ON~PE~QC~SK~YT", "sub_names": "Alberta~British Columbia~Manitoba~New Brunswick~Newfoundland and Labrador~Northwest Territories~Nova Scotia~Nunavut~Ontario~Prince Edward Island~Quebec~Saskatchewan~Yukon", "sub_zips": "T~V~R~E~A~X0E|X0G|X1A~B~X0A|X0B|X0C~K|L|M|N|P~C~G|H|J|K1A~S|R8A~Y", "upper": "ACNOSZ", "zip": "[ABCEGHJKLMNPRSTVXY]\\d[ABCEGHJ-NPRSTV-Z] ?\\d[ABCEGHJ-NPRSTV-Z]\\d", "zipex": "H3Z 2Y7,V8X 3X4,T0L 1K0,T0H 1A0,K1A 0B1"},
  "data/CA--fr": {"fmt": "%N%n%O%n%A%n%C %S %Z", "id": "data/CA--fr", "key": "CA", "lang": "fr", "name": "CANADA", "posturl": "https://www.canadapost.ca/cpo/mc/personal/postalcode/fpc.jsf", "require": "ACSZ", "sub_isoids": "AB~BC~PE~MB~NB~NS~NU~ON~QC~SK~NL~NT~YT", "sub_keys": "AB~BC~PE~MB~NB~NS~NU~ON~QC~SK~NL~NT~YT", "sub_names": "Alberta~Colombie-Britannique~